# From MPC191631
407P/PANSTARRS-Fuls,e,4.8718,80.2283,92.9841,3.493012,0.1509746,0.37490472,356.6132,07/03.0/2026,2000,g 14.0,4.0
# From MPC191631
408P/Novichonok-Gerke,e,19.3447,189.4501,226.7569,4.747818,0.0952715,0.26790428,130.1745,07/03.0/2026,2000,g 11.0,4.0
# From MPC191631
410P/NEAT-LINEAR,e,9.3891,139.8823,313.4100,6.658982,0.0573578,0.51142028,105.2021,07/03.0/2026,2000,g 12.5,4.0
# From MPC191631
411P/Christensen,e,12.3840,77.6387,46.6163,5.812830,0.0703271,0.58192991,139.4830,07/03.0/2026,2000,g 13.5,4.0
# From MPC191632
412P/WISE,e,8.9288,0.8170,155.8195,3.112637,0.1794781,0.47900421,6.0055,07/03.0/2026,2000,g 17.0,4.0
# From MPC191632
413P/Larson,e,15.9474,38.9275,186.6391,3.738455,0.1363534,0.41729554,247.7930,07/03.0/2026,2000,g 14.0,4.0
# From MPC191632
414P/STEREO,e,23.4039,257.8156,210.7196,2.792813,0.2111744,0.81226339,59.0631,07/03.0/2026,2000,g 19.0,4.0
# From MPC191632
415P/Tenagra,e,31.8181,160.2589,345.9875,4.106396,0.1184439,0.19588385,232.4406,07/03.0/2026,2000,g 12.0,4.0
# From MPC191632
416P/Scotti,e,3.3646,355.7194,134.5077,4.005187,0.1229617,0.45571557,241.1009,07/03.0/2026,2000,g 15.5,4.0
# From MPC191632
417P/NEOWISE,e,11.3263,95.2441,142.1083,3.383763,0.1583449,0.53528809,308.9575,07/03.0/2026,2000,g 16.5,4.0
# From MPC191632
418P/LINEAR,e,5.7883,277.2270,307.6703,5.086331,0.0859206,0.66455256,147.8049,07/03.0/2026,2000,g 13.0,4.0
# From MPC191632
419P/PANSTARRS,e,2.7890,40.3176,187.5895,3.541860,0.1478621,0.27163666,254.4618,07/03.0/2026,2000,g 12.5,4.0
# From MPC191632
420P/Hill,e,14.5503,173.2193,156.4089,5.468110,0.0770812,0.49444947,116.4403,07/03.0/2026,2000,g 11.5,4.0
# From MPC191633
422P/Christensen,e,39.5799,36.0076,304.6982,6.270135,0.0627753,0.50518110,102.6879,07/03.0/2026,2000,g 11.0,4.0
# From MPC191633
423P/Lemmon,e,8.3387,33.2955,81.3140,6.187344,0.0640395,0.12266652,111.1781,07/03.0/2026,2000,g  8.0,4.0
# From MPC191633
425P/Kowalski,e,16.4025,210.0954,201.0403,6.355203,0.0615191,0.54312940,107.4604,07/03.0/2026,2000,g 12.0,4.0
# From MPC191633
426P/PANSTARRS,e,17.7838,280.3970,118.3763,3.186580,0.1732674,0.16069201,177.9804,07/03.0/2026,2000,g 13.5,4.0
# From MPEC 2026-L50
427P/ATLAS,e,11.8650,252.3246,99.5967,3.163577,0.1751606,0.31523048,210.7417,07/03.0/2026,2000,g 14.0,4.0
# From MPC191633
428P/Gibbs,e,8.5024,299.3052,36.8584,3.489894,0.1511770,0.51807223,283.9727,07/03.0/2026,2000,g 15.0,4.0
# From MPC191633
429P/LINEAR-Hill,e,7.5141,321.9931,75.7489,3.556985,0.1469200,0.49036476,241.4540,07/03.0/2026,2000,g 15.5,4.0
# From MPC191633
430P/Scotti,e,4.4765,54.6336,94.5028,3.102184,0.1803860,0.50056448,301.6660,07/03.0/2026,2000,g 16.5,4.0
# From MPC191633
431P/Scotti,e,22.3702,202.8204,200.0148,3.477935,0.1519574,0.47693599,243.2717,07/03.0/2026,2000,g 14.0,4.0
# From MPC191634
432P/PANSTARRS,e,10.0661,239.1273,105.2066,3.039069,0.1860343,0.24070084,329.2494,07/03.0/2026,2000,g 17.0,4.0
# From MPC191634
434P/Tenagra,e,6.3363,288.9106,128.4842,4.137820,0.1170972,0.27376547,200.2846,07/03.0/2026,2000,g 13.0,4.0
# From MPC191634
435P/PANSTARRS,e,18.8740,98.5236,244.1594,3.022317,0.1875832,0.31744235,338.3185,07/03.0/2026,2000,g 17.0,4.0
# From MPC191634
437P/Lemmon-PANSTARRS,e,3.6878,245.8425,207.1790,4.571552,0.1008344,0.25471994,142.4175,07/03.0/2026,2000,g 13.0,4.0
# From MPEC 2026-L50
438P/Christensen,e,8.2804,260.1118,58.9214,3.854468,0.1302439,0.41412617,297.6190,07/03.0/2026,2000,g 14.5,4.0
# From MPC191634
439P/LINEAR,e,7.1106,56.3983,342.1347,3.492622,0.1509999,0.46870114,267.5762,07/03.0/2026,2000,g 13.5,4.0
# From MPEC 2026-L50
441P/PANSTARRS,e,2.5748,143.5893,178.7887,4.129878,0.1174352,0.19424475,34.8843,07/03.0/2026,2000,g 13.5,4.0
# From MPC191634
442P/McNaught,e,6.0616,31.7949,310.5925,4.946233,0.0895967,0.53303865,126.9129,07/03.0/2026,2000,g 13.5,4.0
# From MPEC 2026-L50
443P/PANSTARRS-Christensen,e,19.8885,108.9311,144.9895,4.123980,0.1176872,0.28278021,160.4780,07/03.0/2026,2000,g 13.5,4.0
# From MPC191635
445P/Lemmon-PANSTARRS,e,1.0898,126.6103,213.0083,4.041721,0.1212983,0.41518788,171.8864,07/03.0/2026,2000,g 15.0,4.0
# From MPC191635
447P/Sheppard-Tholen,e,7.4418,302.6390,97.1653,5.619809,0.0739813,0.17674217,105.1025,07/03.0/2026,2000,g 12.0,4.0
# From MPC191635
448P/PANSTARRS,e,12.1415,161.7430,218.7989,3.637619,0.1420621,0.41767824,198.4219,07/03.0/2026,2000,g 16.0,4.0
# From MPC191635
449P/Leonard,e,15.4661,242.5095,176.7931,3.599330,0.1443350,0.47958101,295.1438,07/03.0/2026,2000,g 16.0,4.0
# From MPEC 2026-KB8
450P/LONEOS,e,11.2188,123.7810,32.5179,7.482999,0.0481494,0.28558706,345.1273,07/03.0/2026,2000,g  6.5,4.0
# From MPC191635
451P/Christensen,e,26.4881,300.8610,186.8580,6.354693,0.0615265,0.55929218,80.7652,07/03.0/2026,2000,g 13.5,4.0
# From MPC191635
452P/Sheppard-Jewitt,e,6.4226,123.6584,37.1710,7.317528,0.0497918,0.42894522,57.9233,07/03.0/2026,2000,g  9.0,4.0
# From MPC191636
453P/WISE-Lemmon,e,27.0461,42.8734,70.9620,5.470402,0.0770327,0.58311194,93.7836,07/03.0/2026,2000,g 14.0,4.0
# From MPC191636
454P/PANSTARRS,e,19.8014,54.5850,20.2524,4.213313,0.1139642,0.36100915,163.8218,07/03.0/2026,2000,g 14.0,4.0
# From MPC191636
455P/PANSTARRS,e,14.1333,146.1703,237.5222,3.154445,0.1759218,0.30401897,215.4700,07/03.0/2026,2000,g 17.0,4.0
# From MPC191636
456P/PANSTARRS,e,16.9648,243.1375,233.0033,3.168580,0.1747459,0.11550047,77.6179,07/03.0/2026,2000,g 13.5,4.0
# From MPC191636
457P/Lemmon-PANSTARRS,e,5.2255,175.9537,104.3391,2.645602,0.2290431,0.11803187,156.2424,07/03.0/2026,2000,g 15.5,4.0
# From MPC191636
458P/Jahn,e,13.6219,1.5331,105.0187,3.860095,0.1299592,0.31713570,174.2566,07/03.0/2026,2000,g 14.0,4.0
# From MPC191636
459P/Catalina,e,7.1714,256.9784,205.2566,3.240592,0.1689536,0.57780029,207.3048,07/03.0/2026,2000,g 15.5,4.0
# From MPC191636
461P/WISE,e,18.3926,194.3651,174.8142,3.145254,0.1766935,0.56933102,306.2599,07/03.0/2026,2000,g 18.5,4.0
# From MPC191637
464P/PANSTARRS,e,21.6722,309.5742,267.4575,4.682004,0.0972874,0.28100801,118.8360,07/03.0/2026,2000,g 10.5,4.0
# From MPC191637
465P/Hill,e,25.8645,217.8952,140.9411,5.998699,0.0670839,0.61276059,77.2750,07/03.0/2026,2000,g 12.5,4.0
# From MPC191637
466P/PANSTARRS,e,16.7711,114.9479,195.7163,3.977196,0.1242621,0.45178318,153.0814,07/03.0/2026,2000,g 14.0,4.0
# From MPC191637
467P/LINEAR-Grauer,e,2.4797,43.2617,266.7633,5.821725,0.0701660,0.05404518,92.8954,07/03.0/2026,2000,g  9.0,4.0
# From MPC191637
468P/SidingSpring,e,50.4590,356.1376,322.5076,7.110235,0.0519850,0.44450500,49.6710,07/03.0/2026,2000,g 11.5,4.0
# From MPC191637
469P/PANSTARRS,e,20.1700,178.9594,43.5067,4.345201,0.1088151,0.30842673,22.4774,07/03.0/2026,2000,g 13.5,4.0
# From MPC191637
470P/PANSTARRS,e,8.8442,246.1509,151.6005,4.460020,0.1046403,0.38912435,97.3039,07/03.0/2026,2000,g 15.5,4.0
# From MPC191637
471P/LINEAR-Lemmon,e,4.7960,283.2998,94.6596,5.681106,0.0727871,0.62747756,67.4495,07/03.0/2026,2000,g 12.0,4.0
# From MPC194204
472P/NEAT-LINEAR,e,10.8311,205.7746,218.7525,7.748514,0.0456958,0.56313292,32.8970,07/03.0/2026,2000,g 10.5,4.0
# From MPC191638
473P/NEAT,e,56.8657,22.1907,42.9578,7.973621,0.0437744,0.82348086,37.5534,07/03.0/2026,2000,g 13.5,4.0
# From MPC191638
474P/Hogan,e,1.0967,26.7518,11.2598,3.131547,0.1778549,0.18765128,192.7724,07/03.0/2026,2000,g 15.5,4.0
# From MPC191638
475P/Spacewatch-LINEAR,e,14.5249,147.3458,40.4599,7.324752,0.0497181,0.44331536,37.8328,07/03.0/2026,2000,g 11.0,4.0
# From MPC191638
476P/PANSTARRS,e,19.0044,57.0514,46.7727,4.775142,0.0944549,0.34567545,58.9814,07/03.0/2026,2000,g 12.5,4.0
# From MPC191638
477P/PANSTARRS,e,8.9143,59.1342,305.8329,3.001158,0.1895705,0.41765772,174.3507,07/03.0/2026,2000,g 14.5,4.0
# From MPC191638
478P/ATLAS,e,12.5257,127.2571,13.3087,3.649340,0.1413783,0.34382766,111.9116,07/03.0/2026,2000,g 13.5,4.0
# From MPC191638
480P/PANSTARRS,e,13.7128,229.9875,214.5311,4.613343,0.0994673,0.24599334,115.9746,07/03.0/2026,2000,g 12.0,4.0
# From MPC191638
481P/Lemmon-PANSTARRS,e,6.0823,93.5537,356.8957,4.684407,0.0972125,0.34319757,105.9189,07/03.0/2026,2000,g 13.5,4.0
# From MPC191638
482P/PANSTARRS,e,24.4904,126.0693,339.7723,3.757989,0.1352916,0.49222346,152.4306,07/03.0/2026,2000,g 13.5,4.0
# From MPEC 2026-HI3
483P/PANSTARRS,e,14.1839,198.7840,50.0551,3.192326,0.1727998,0.22137134,273.8344,07/03.0/2026,2000,g 16.5,4.0
# From MPC186638
483P-A/PANSTARRS,e,14.1839,198.7841,50.0554,3.192326,0.1727998,0.22137173,273.8340,07/03.0/2026,2000,g 13.5,4.0
# From MPC185666
483P-B/PANSTARRS,e,14.1847,198.7837,50.0461,3.192240,0.1728068,0.22131575,273.8714,07/03.0/2026,2000,g 17.0,4.0
# From MPC191639
484P/Spacewatch,e,14.4750,265.3528,240.8825,3.755168,0.1354441,0.43329685,276.4986,07/03.0/2026,2000,g 16.0,4.0
# From MPC191639
485P/Sheppard-Tholen,e,10.0154,261.6507,196.1930,6.855017,0.0549150,0.41704390,57.2433,07/03.0/2026,2000,g 13.0,4.0
# From MPC194204
486P/Leonard,e,2.2098,219.0234,93.9302,3.626394,0.1427222,0.36325134,64.9742,07/03.0/2026,2000,g 14.5,4.0
# From MPC191639
487P/SidingSpring,e,39.3654,49.2024,0.8335,5.159066,0.0841100,0.64817373,52.1944,07/03.0/2026,2000,g 13.5,4.0
# From MPC191639
488P/NEAT-PANSTARRS,e,11.8282,322.3801,4.7559,3.799907,0.1330591,0.54674413,102.9207,07/03.0/2026,2000,g 16.5,4.0
# From MPEC 2024-Q14
489P/Denning,e,4.0259,20.5970,109.4237,4.423992,0.1059211,0.64705050,22.3173,07/03.0/2026,2000,g 15.5,4.0
# From MPEC 2026-KB8
491P/Spacewatch-PANSTARRS,e,9.3669,311.6830,298.7998,5.012195,0.0878339,0.25879246,58.4466,07/03.0/2026,2000,g  9.5,4.0
# From MPC194204
492P/LINEAR,e,11.4002,11.3058,40.9774,5.756369,0.0713643,0.69033199,50.8642,07/03.0/2026,2000,g 15.0,4.0
# From MPEC 2026-KB8
493P/LONEOS,e,24.1107,1.0239,83.3087,7.191930,0.0511018,0.46843267,8.6723,07/03.0/2026,2000,g  8.5,4.0
# From MPC191640
494P/PANSTARRS,e,7.7890,245.0441,48.8906,3.794418,0.1333479,0.35642179,101.7805,07/03.0/2026,2000,g 16.0,4.0
# From MPEC 2026-L50
495P/Christensen,e,26.3480,291.6136,141.3332,4.776068,0.0944275,0.27573809,23.9390,07/03.0/2026,2000,g 11.5,4.0
# From MPC191640
